CCSDS_OMM_VERS = 2.0
CREATION_DATE  = 
ORIGINATOR     = 

OBJECT_NAME    = LVM3 R/B
OBJECT_ID      = 2025-249A
CENTER_NAME    = EARTH
REF_FRAME      = TEME
TIME_SYSTEM    = UTC
MEAN_ELEMENT_THEORY = SGP/SGP4

EPOCH          = 2025-12-01T08:08:40.653024
MEAN_MOTION    = 3.14269232
ECCENTRICITY   = .6668793
INCLINATION    = 21.3490
RA_OF_ASC_NODE = 143.9958
ARG_OF_PERICENTER = 208.0487
MEAN_ANOMALY   = 89.1049

EPHEMERIS_TYPE = 0
CLASSIFICATION_TYPE = U
NORAD_CAT_ID   = 66310
ELEMENT_SET_NO = 999
REV_AT_EPOCH   = 92
BSTAR          = .12816E-2
MEAN_MOTION_DOT = .47432E-3
MEAN_MOTION_DDOT = -.36454E-6

CCSDS_OMM_VERS = 2.0
CREATION_DATE  = 
ORIGINATOR     = 

OBJECT_NAME    = CMS-03 (GSAT-7R)
OBJECT_ID      = 2025-249B
CENTER_NAME    = EARTH
REF_FRAME      = TEME
TIME_SYSTEM    = UTC
MEAN_ELEMENT_THEORY = SGP/SGP4

EPOCH          = 2025-12-01T10:50:04.739136
MEAN_MOTION    = 1.00268844
ECCENTRICITY   = .0004062
INCLINATION    = 0.1695
RA_OF_ASC_NODE = 272.0136
ARG_OF_PERICENTER = 195.9390
MEAN_ANOMALY   = 218.6258

EPHEMERIS_TYPE = 0
CLASSIFICATION_TYPE = U
NORAD_CAT_ID   = 66311
ELEMENT_SET_NO = 999
REV_AT_EPOCH   = 37
BSTAR          = 0
MEAN_MOTION_DOT = -.236E-5
MEAN_MOTION_DDOT = 0

CCSDS_OMM_VERS = 2.0
CREATION_DATE  = 
ORIGINATOR     = 

OBJECT_NAME    = YAOGAN-46
OBJECT_ID      = 2025-250A
CENTER_NAME    = EARTH
REF_FRAME      = TEME
TIME_SYSTEM    = UTC
MEAN_ELEMENT_THEORY = SGP/SGP4

EPOCH          = 2025-11-23T01:44:02.775840
MEAN_MOTION    = 5.35115916
ECCENTRICITY   = .00492374
INCLINATION    = 20.0335
RA_OF_ASC_NODE = 104.8243
ARG_OF_PERICENTER = 135.6954
MEAN_ANOMALY   = 224.7061

EPHEMERIS_TYPE = 0
CLASSIFICATION_TYPE = U
NORAD_CAT_ID   = 66313
ELEMENT_SET_NO = 999
REV_AT_EPOCH   = 114
BSTAR          = 0
MEAN_MOTION_DOT = -.7E-7
MEAN_MOTION_DDOT = 0

CCSDS_OMM_VERS = 2.0
CREATION_DATE  = 
ORIGINATOR     = 

OBJECT_NAME    = SENTINEL-1D
OBJECT_ID      = 2025-251A
CENTER_NAME    = EARTH
REF_FRAME      = TEME
TIME_SYSTEM    = UTC
MEAN_ELEMENT_THEORY = SGP/SGP4

EPOCH          = 2025-11-25T22:17:03.828192
MEAN_MOTION    = 14.59751375
ECCENTRICITY   = .0001477
INCLINATION    = 98.1939
RA_OF_ASC_NODE = 335.1735
ARG_OF_PERICENTER = 179.8573
MEAN_ANOMALY   = 180.2628

EPHEMERIS_TYPE = 0
CLASSIFICATION_TYPE = U
NORAD_CAT_ID   = 66315
ELEMENT_SET_NO = 999
REV_AT_EPOCH   = 308
BSTAR          = .52376371E-4
MEAN_MOTION_DOT = .204E-5
MEAN_MOTION_DDOT = 0

CCSDS_OMM_VERS = 2.0
CREATION_DATE  = 
ORIGINATOR     = 

OBJECT_NAME    = QPS-SAR-14 (YACHIHOKO-I)
OBJECT_ID      = 2025-252A
CENTER_NAME    = EARTH
REF_FRAME      = TEME
TIME_SYSTEM    = UTC
MEAN_ELEMENT_THEORY = SGP/SGP4

EPOCH          = 2025-11-30T20:45:26.214336
MEAN_MOTION    = 14.97500986
ECCENTRICITY   = .00070026
INCLINATION    = 42.0028
RA_OF_ASC_NODE = 140.4818
ARG_OF_PERICENTER = 67.1754
MEAN_ANOMALY   = 292.9810

EPHEMERIS_TYPE = 0
CLASSIFICATION_TYPE = U
NORAD_CAT_ID   = 66316
ELEMENT_SET_NO = 999
REV_AT_EPOCH   = 375
BSTAR          = .536307E-3
MEAN_MOTION_DOT = .6181E-4
MEAN_MOTION_DDOT = 0

CCSDS_OMM_VERS = 2.0
CREATION_DATE  = 
ORIGINATOR     = 

OBJECT_NAME    = ELECTRON R/B
OBJECT_ID      = 2025-252B
CENTER_NAME    = EARTH
REF_FRAME      = TEME
TIME_SYSTEM    = UTC
MEAN_ELEMENT_THEORY = SGP/SGP4

EPOCH          = 2025-11-29T21:07:58.211904
MEAN_MOTION    = 15.94243293
ECCENTRICITY   = .01246685
INCLINATION    = 41.9889
RA_OF_ASC_NODE = 130.1303
ARG_OF_PERICENTER = 46.1701
MEAN_ANOMALY   = 314.9386

EPHEMERIS_TYPE = 0
CLASSIFICATION_TYPE = U
NORAD_CAT_ID   = 66317
ELEMENT_SET_NO = 999
REV_AT_EPOCH   = 378
BSTAR          = .19142518E-2
MEAN_MOTION_DOT = .1669799E-1
MEAN_MOTION_DDOT = .7910989E-5

CCSDS_OMM_VERS = 2.0
CREATION_DATE  = 
ORIGINATOR     = 

OBJECT_NAME    = STARLINK-35442
OBJECT_ID      = 2025-253A
CENTER_NAME    = EARTH
REF_FRAME      = TEME
TIME_SYSTEM    = UTC
MEAN_ELEMENT_THEORY = SGP/SGP4

EPOCH          = 2025-12-01T12:00:05.998752
MEAN_MOTION    = 15.40673341
ECCENTRICITY   = .0001145
INCLINATION    = 43.0006
RA_OF_ASC_NODE = 50.6466
ARG_OF_PERICENTER = 270.3202
MEAN_ANOMALY   = 175.0754

EPHEMERIS_TYPE = 0
CLASSIFICATION_TYPE = U
NORAD_CAT_ID   = 66319
ELEMENT_SET_NO = 999
REV_AT_EPOCH   = 521
BSTAR          = .11221E-2
MEAN_MOTION_DOT = .46817E-3
MEAN_MOTION_DDOT = 0

CCSDS_OMM_VERS = 2.0
CREATION_DATE  = 
ORIGINATOR     = 

OBJECT_NAME    = STARLINK-34616
OBJECT_ID      = 2025-253B
CENTER_NAME    = EARTH
REF_FRAME      = TEME
TIME_SYSTEM    = UTC
MEAN_ELEMENT_THEORY = SGP/SGP4

EPOCH          = 2025-12-01T06:41:39.763680
MEAN_MOTION    = 15.50649474
ECCENTRICITY   = .0001937
INCLINATION    = 42.9998
RA_OF_ASC_NODE = 51.7646
ARG_OF_PERICENTER = 266.1893
MEAN_ANOMALY   = 93.8745

EPHEMERIS_TYPE = 0
CLASSIFICATION_TYPE = U
NORAD_CAT_ID   = 66320
ELEMENT_SET_NO = 999
REV_AT_EPOCH   = 523
BSTAR          = .22567E-2
MEAN_MOTION_DOT = .134687E-2
MEAN_MOTION_DDOT = 0

CCSDS_OMM_VERS = 2.0
CREATION_DATE  = 
ORIGINATOR     = 

OBJECT_NAME    = STARLINK-34615
OBJECT_ID      = 2025-253C
CENTER_NAME    = EARTH
REF_FRAME      = TEME
TIME_SYSTEM    = UTC
MEAN_ELEMENT_THEORY = SGP/SGP4

EPOCH          = 2025-12-01T05:41:41.296128
MEAN_MOTION    = 15.63215061
ECCENTRICITY   = .0002307
INCLINATION    = 42.9992
RA_OF_ASC_NODE = 51.4370
ARG_OF_PERICENTER = 2.8103
MEAN_ANOMALY   = 357.2774

EPHEMERIS_TYPE = 0
CLASSIFICATION_TYPE = U
NORAD_CAT_ID   = 66321
ELEMENT_SET_NO = 999
REV_AT_EPOCH   = 515
BSTAR          = .20312E-2
MEAN_MOTION_DOT = .195448E-2
MEAN_MOTION_DDOT = 0

CCSDS_OMM_VERS = 2.0
CREATION_DATE  = 
ORIGINATOR     = 

OBJECT_NAME    = STARLINK-35292
OBJECT_ID      = 2025-253D
CENTER_NAME    = EARTH
REF_FRAME      = TEME
TIME_SYSTEM    = UTC
MEAN_ELEMENT_THEORY = SGP/SGP4

EPOCH          = 2025-12-01T06:00:02.000160
MEAN_MOTION    = 15.40900734
ECCENTRICITY   = .00022023
INCLINATION    = 43.0008
RA_OF_ASC_NODE = 51.9925
ARG_OF_PERICENTER = 282.3743
MEAN_ANOMALY   = 251.7766

EPHEMERIS_TYPE = 0
CLASSIFICATION_TYPE = U
NORAD_CAT_ID   = 66322
ELEMENT_SET_NO = 999
REV_AT_EPOCH   = 508
BSTAR          = -.10395651E-1
MEAN_MOTION_DOT = -.414603E-2
MEAN_MOTION_DDOT = 0

CCSDS_OMM_VERS = 2.0
CREATION_DATE  = 
ORIGINATOR     = 

OBJECT_NAME    = STARLINK-35309
OBJECT_ID      = 2025-253E
CENTER_NAME    = EARTH
REF_FRAME      = TEME
TIME_SYSTEM    = UTC
MEAN_ELEMENT_THEORY = SGP/SGP4

EPOCH          = 2025-11-30T16:42:53.610912
MEAN_MOTION    = 15.50592403
ECCENTRICITY   = .0000963
INCLINATION    = 42.9998
RA_OF_ASC_NODE = 55.1339
ARG_OF_PERICENTER = 273.5467
MEAN_ANOMALY   = 86.5283

EPHEMERIS_TYPE = 0
CLASSIFICATION_TYPE = U
NORAD_CAT_ID   = 66323
ELEMENT_SET_NO = 999
REV_AT_EPOCH   = 506
BSTAR          = .1186046E-2
MEAN_MOTION_DOT = .69894E-3
MEAN_MOTION_DDOT = 0

CCSDS_OMM_VERS = 2.0
CREATION_DATE  = 
ORIGINATOR     = 

OBJECT_NAME    = STARLINK-35506
OBJECT_ID      = 2025-253F
CENTER_NAME    = EARTH
REF_FRAME      = TEME
TIME_SYSTEM    = UTC
MEAN_ELEMENT_THEORY = SGP/SGP4

EPOCH          = 2025-12-01T05:06:55.861056
MEAN_MOTION    = 15.50651952
ECCENTRICITY   = .0001459
INCLINATION    = 42.9999
RA_OF_ASC_NODE = 52.1305
ARG_OF_PERICENTER = 261.0822
MEAN_ANOMALY   = 98.9873

EPHEMERIS_TYPE = 0
CLASSIFICATION_TYPE = U
NORAD_CAT_ID   = 66324
ELEMENT_SET_NO = 999
REV_AT_EPOCH   = 514
BSTAR          = .27895E-2
MEAN_MOTION_DOT = .167285E-2
MEAN_MOTION_DDOT = 0

